0 ARIANE 5 R/B
1 33754U 09008F   13282.35123459  .00000516  00000-0  36872-3 0   562
2 33754 002.3895 299.9504 7229762 161.3047 353.7010 02.32533125 38989
0 ARIANE 5 R/B
1 33754U 09008F   13283.51588925  .00000383  00000-0  19970-3 0   577
2 33754 002.3861 299.1446 7231509 162.6034 248.6451 02.32531801 39005
0 ARIANE 5 R/B
1 33754U 09008F   13283.61838200  .00000591  00000-0  37841-3 0   570
2 33754 002.3855 299.4420 7229706 162.3422 334.4484 02.32535355 39016
0 ARIANE 5 R/B
1 33754U 09008F   13286.21766519  .00000746  00000-0  36912-3 0   594
2 33754 002.3775 298.3849 7229590 164.4838 350.3761 02.32538784 39075
0 ARIANE 5 R/B
1 33754U 09008F   13288.37306977  .00000908  00000-0  43712-3 0   609
2 33754 002.3717 297.4983 7229511 166.2680 354.7511 02.32542662 39125
0 ARIANE 5 R/B
1 33754U 09008F   13289.63864718  .00000846  00000-0  42810-3 0   611
2 33754 002.3681 296.9777 7229549 167.3146 334.2333 02.32544500 39151
0 ARIANE 5 R/B
1 33754U 09008F   13292.42490338  .00000583  00000-0  39404-3 0   629
2 33754 002.3606 295.8277 7229627 169.6219 146.7785 02.32548493 39213
0 ARIANE 5 R/B
1 33754U 09008F   13293.47889144  .00000582  00000-0  43345-3 0   631
2 33754 002.3577 295.3912 7229626 170.4980 309.1485 02.32549986 39248
0 ARIANE 5 R/B
1 33754U 09008F   13295.24922128  .00000442  00000-0  39041-3 0   642
2 33754 002.3525 294.6564 7229676 171.9694 351.2266 02.32553267 39285
